0 IRIDIUM 33 DEB
1 38228U 97051ZC  24020.22136785  .00001451  00000-0  59869-3 0  9998
2 38228  86.2781 342.1380 0068924 268.8470 156.2341 14.24923564749116
0 IRIDIUM 33 DEB
1 38229U 97051ZD  24014.65532512  .00010686  00000-0  51113-2 0  9990
2 38229  86.3756 149.5805 0198049  77.3630 284.9616 14.09256019717929
0 IRIDIUM 33 DEB
1 38241U 97051ZR  24022.03410783  .00004200  00000-0  11457-2 0  9992
2 38241  86.3268 293.2958 0002064 148.9280 211.2045 14.47174614738489
0 IRIDIUM 33 DEB
1 38474U 97051AAB 24020.07193815  .00004066  00000-0  11602-2 0  9998
2 38474  86.3513 310.3759 0025827 236.3023 123.5716 14.44812217552950
0 IRIDIUM 33 DEB
1 38477U 97051AAE 24018.25387486  .00006209  00000-0  54644-2 0  9991
2 38477  86.4217 359.4258 0452394  66.5299 298.2721 13.46924408452776
0 IRIDIUM 33 DEB
1 39777U 97051AAJ 24021.78395371  .00012470  00000-0  41431-2 0  9996
2 39777  85.9762 144.8931 0076686 315.2677  44.2350 14.35983018501978
0 IRIDIUM 33 DEB
1 39778U 97051AAK 24020.32243583  .00005811  00000-0  16611-2 0  9996
2 39778  86.3839 341.4092 0008898 158.8331 201.3240 14.44959851506607
0 IRIDIUM 33 DEB
1 39783U 97051AAQ 24014.36082383  .00015445  00000-0  37801-2 0  9996
2 39783  86.1647 229.5024 0053429  70.5372  51.3053 14.51548449504859
0 IRIDIUM 33 DEB
1 40996U 97051ABJ 24021.24841671  .00015110  00000-0  32099-2 0  9995
2 40996  86.3690 313.1564 0010136 309.0735 203.1150 14.58981306522919
0 IRIDIUM 33 DEB
1 40998U 97051ABL 24020.20581199  .00003378  00000-0  10582-2 0  9994
2 40998  86.3938 348.2717 0006791 194.3169 228.2323 14.40389861971246
0 IRIDIUM 33 DEB
1 46962U 97051ABU 24021.21897084  .00050226  00000-0  81918-2 0  9991
2 46962  86.3075 351.2936 0063325 170.0200 253.8069 14.69354081629298
0 IRIDIUM 33 DEB
1 46965U 97051ABX 24021.70090612  .00004705  00000-0  11607-2 0  9999
2 46965  86.3382 284.9059 0023619 132.5164 258.3833 14.51808196522118
0 IRIDIUM 33 DEB
1 46971U 97051ACD 24008.53189993  .00008503  00000-0  17109-2 0  9996
2 46971  86.3482 293.1041 0008170 201.4363 284.7869 14.61465087626410
0 IRIDIUM 33 DEB
1 46974U 97051ACG 24017.80346024  .00011973  00000-0  48325-2 0  9998
2 46974  86.3099  43.0787 0121622 289.5926  69.2167 14.23880778475488
0 IRIDIUM 33 DEB
1 46976U 97051ACJ 23365.80790807  .00014770  00000-0  56561-2 0  9996
2 46976  86.4371 178.8987 0157599 270.2225 154.0287 14.23906170515592
0 IRIDIUM 33 DEB
1 46979U 97051ACM 24012.22839214  .00014879  00000-0  40719-2 0  9999
2 46979  86.3548   0.4828 0062288 111.4695 249.3165 14.45956396251758
