OBJECT_NAME,OBJECT_ID,EPOCH,MEAN_MOTION,ECCENTRICITY,INCLINATION,RA_OF_ASC_NODE,ARG_OF_PERICENTER,MEAN_ANOMALY,EPHEMERIS_TYPE,CLASSIFICATION_TYPE,NORAD_CAT_ID,ELEMENT_SET_NO,REV_AT_EPOCH,BSTAR,MEAN_MOTION_DOT,MEAN_MOTION_DDOT
IRIDIUM 33 DEB,1997-051ZC,2024-01-20T05:18:46.182240,14.24923564,.0068924,86.2781,342.1380,268.8470,156.2341,0,U,38228,999,74911,.59869E-3,.1451E-4,0
IRIDIUM 33 DEB,1997-051ZD,2024-01-14T15:43:40.090368,14.09256019,.0198049,86.3756,149.5805,77.3630,284.9616,0,U,38229,999,71792,.51113E-2,.10686E-3,0
IRIDIUM 33 DEB,1997-051ZR,2024-01-22T00:49:06.916512,14.47174614,.0002064,86.3268,293.2958,148.9280,211.2045,0,U,38241,999,50183,.11457E-2,.42E-4,0
IRIDIUM 33 DEB,1997-051AAB,2024-01-20T01:43:35.456160,14.44812217,.0025827,86.3513,310.3759,236.3023,123.5716,0,U,38474,999,55295,.11602E-2,.4066E-4,0
IRIDIUM 33 DEB,1997-051AAE,2024-01-18T06:05:34.787904,13.46924408,.0452394,86.4217,359.4258,66.5299,298.2721,0,U,38477,999,67276,.54644E-2,.6209E-4,0
IRIDIUM 33 DEB,1997-051AAJ,2024-01-21T18:48:53.600544,14.35983018,.0076686,85.9762,144.8931,315.2677,44.2350,0,U,39777,999,52910,.41431E-2,.1247E-3,0
IRIDIUM 33 DEB,1997-051AAK,2024-01-20T07:44:18.455712,14.44959851,.0008898,86.3839,341.4092,158.8331,201.3240,0,U,39778,999,50660,.16611E-2,.5811E-4,0
IRIDIUM 33 DEB,1997-051AAQ,2024-01-14T08:39:35.178912,14.51548449,.0053429,86.1647,229.5024,70.5372,51.3053,0,U,39783,999,50485,.37801E-2,.15445E-3,0
IRIDIUM 33 DEB,1997-051ABJ,2024-01-21T05:57:43.203744,14.58981306,.0010136,86.3690,313.1564,309.0735,203.1150,0,U,40996,999,52291,.32099E-2,.1511E-3,0
IRIDIUM 33 DEB,1997-051ABL,2024-01-20T04:56:22.155936,14.40389861,.0006791,86.3938,348.2717,194.3169,228.2323,0,U,40998,999,97124,.10582E-2,.3378E-4,0
IRIDIUM 33 DEB,1997-051ABU,2024-01-21T05:15:19.080576,14.69354081,.0063325,86.3075,351.2936,170.0200,253.8069,0,U,46962,999,62929,.81918E-2,.50226E-3,0
IRIDIUM 33 DEB,1997-051ABX,2024-01-21T16:49:18.288768,14.51808196,.0023619,86.3382,284.9059,132.5164,258.3833,0,U,46965,999,52211,.11607E-2,.4705E-4,0
IRIDIUM 33 DEB,1997-051ACD,2024-01-08T12:45:56.153952,14.61465087,.000817,86.3482,293.1041,201.4363,284.7869,0,U,46971,999,62641,.17109E-2,.8503E-4,0
IRIDIUM 33 DEB,1997-051ACG,2024-01-17T19:16:58.964736,14.23880778,.0121622,86.3099,43.0787,289.5926,69.2167,0,U,46974,999,47548,.48325E-2,.11973E-3,0
IRIDIUM 33 DEB,1997-051ACJ,2023-12-31T19:23:23.257248,14.23906170,.0157599,86.4371,178.8987,270.2225,154.0287,0,U,46976,999,51559,.56561E-2,.1477E-3,0
IRIDIUM 33 DEB,1997-051ACM,2024-01-12T05:28:53.080896,14.45956396,.0062288,86.3548,0.4828,111.4695,249.3165,0,U,46979,999,25175,.40719E-2,.14879E-3,0
